GLOBALSTAR M023 [+]     
1 25621U 99004A   23244.79167674 -.00000077  00000+0  15008-3 0  9991
2 25621  52.0085 245.9687 0010042 119.7432  51.3232 12.62448677133070
GLOBALSTAR M040 [-]     
1 25622U 99004B   23244.95444377 -.00000077  00000+0  15228-3 0  9992
2 25622  51.9896 248.6732 0000686  50.4148 320.8886 12.61953008132658
GLOBALSTAR M036 [-]     
1 25623U 99004C   23244.84094380 -.00000118  00000+0 -50974-3 0  9990
2 25623  51.9956 164.9544 0010493 241.3792 158.6092 11.86554535101302
GLOBALSTAR M038 [-]     
1 25624U 99004D   23244.50268061 -.00000065  00000+0  24416-3 0  9995
2 25624  51.9965 156.9107 0001906 111.5349  59.5918 12.32483388121604
GLOBALSTAR M022 [-]     
1 25649U 99012A   23244.83673926 -.00000047  00000+0  47274-3 0  9994
2 25649  52.0026 269.6780 0002481 318.5305 212.5758 12.02468389 97651
GLOBALSTAR M041 [-]     
1 25650U 99012B   23244.94264692 -.00000035  00000+0  64529-3 0  9993
2 25650  52.0009 130.8934 0002495  92.4716 267.6406 11.96646318 99951
GLOBALSTAR M046 [-]     
1 25651U 99012C   23244.71395905 -.00000197  00000+0 -11951-2 0  9991
2 25651  52.0025 244.0312 0002224  26.5476 144.5069 12.09375993104474
GLOBALSTAR M037 [+]     
1 25652U 99012D   23244.62803514 -.00000082  00000+0  12309-3 0  9993
2 25652  52.0027  17.3337 0002110 156.1947 216.8887 12.62382868128602
